ISS (ZARYA)             
1 25544U 98067A   26058.25169714  .00013796  00000+0  26393-3 0  9997
2 25544  51.6322 123.9568 0008342 138.2013 221.9613 15.48333785554713
POISK                   
1 36086U 09060A   26057.92898233  .00012356  00000+0  23739-3 0  9995
2 36086  51.6324 125.5516 0008331 137.1924 222.9714 15.48321702554580
CSS (TIANHE)            
1 48274U 21035A   26058.02710993  .00029164  00000+0  35096-3 0  9995
2 48274  41.4660 273.0164 0006025 205.1472 154.9074 15.60161945275940
ISS (NAUKA)             
1 49044U 21066A   26058.25169714  .00013796  00000+0  26393-3 0  9993
2 49044  51.6322 123.9568 0008342 138.2013 221.9613 15.48333785230445
FREGAT DEB              
1 49271U 11037PF  26058.12238864  .00033007  00000+0  49619-1 0  9992
2 49271  51.6457 332.4314 0951113  35.1262 330.8686 12.39503425211385
CSS (WENTIAN)           
1 53239U 22085A   26058.02710993  .00029164  00000+0  35096-3 0  9998
2 53239  41.4660 273.0164 0006025 205.1472 154.9074 15.60161945173843
CSS (MENGTIAN)          
1 54216U 22143A   26058.02710993  .00029164  00000+0  35096-3 0  9999
2 54216  41.4660 273.0164 0006025 205.1472 154.9074 15.60161945158640
PROGRESS-MS 31          
1 64751U 25146A   26058.25169714  .00013796  00000+0  26393-3 0  9998
2 64751  51.6322 123.9568 0008342 138.2013 221.9613 15.48333785  6752
TIANZHOU-9              
1 64786U 25149A   26058.02710993  .00029164  00000+0  35096-3 0  9991
2 64786  41.4660 273.0164 0006025 205.1472 154.9074 15.60161945255304
DRAGON CRS-33           
1 65304U 25186A   26058.25169714  .00013796  00000+0  26393-3 0  9997
2 65304  51.6322 123.9568 0008342 138.2013 221.9613 15.48333785   111
PROGRESS-MS 32          
1 65586U 25204A   26058.25169714  .00013796  00000+0  26393-3 0  9990
2 65586  51.6322 123.9568 0008342 138.2013 221.9613 15.48333785   270
CYGNUS NG-23            
1 65616U 25208A   26058.25169714  .00013796  00000+0  26393-3 0  9998
2 65616  51.6322 123.9568 0008342 138.2013 221.9613 15.48333785   229
