CCSDS_OMM_VERS = 2.0
CREATION_DATE  = 
ORIGINATOR     = 

OBJECT_NAME    = ISS (ZARYA)
OBJECT_ID      = 1998-067A
CENTER_NAME    = EARTH
REF_FRAME      = TEME
TIME_SYSTEM    = UTC
MEAN_ELEMENT_THEORY = SGP/SGP4

EPOCH          = 2026-02-27T06:02:26.632896
MEAN_MOTION    = 15.48333785
ECCENTRICITY   = .00083426
INCLINATION    = 51.6322
RA_OF_ASC_NODE = 123.9568
ARG_OF_PERICENTER = 138.2013
MEAN_ANOMALY   = 221.9613

EPHEMERIS_TYPE = 0
CLASSIFICATION_TYPE = U
NORAD_CAT_ID   = 25544
ELEMENT_SET_NO = 999
REV_AT_EPOCH   = 55471
BSTAR          = .26392566E-3
MEAN_MOTION_DOT = .13796E-3
MEAN_MOTION_DDOT = 0

CCSDS_OMM_VERS = 2.0
CREATION_DATE  = 
ORIGINATOR     = 

OBJECT_NAME    = POISK
OBJECT_ID      = 2009-060A
CENTER_NAME    = EARTH
REF_FRAME      = TEME
TIME_SYSTEM    = UTC
MEAN_ELEMENT_THEORY = SGP/SGP4

EPOCH          = 2026-02-26T22:17:44.073312
MEAN_MOTION    = 15.48321702
ECCENTRICITY   = .0008331
INCLINATION    = 51.6324
RA_OF_ASC_NODE = 125.5516
ARG_OF_PERICENTER = 137.1924
MEAN_ANOMALY   = 222.9714

EPHEMERIS_TYPE = 0
CLASSIFICATION_TYPE = U
NORAD_CAT_ID   = 36086
ELEMENT_SET_NO = 999
REV_AT_EPOCH   = 55458
BSTAR          = .23739E-3
MEAN_MOTION_DOT = .12356E-3
MEAN_MOTION_DDOT = 0

CCSDS_OMM_VERS = 2.0
CREATION_DATE  = 
ORIGINATOR     = 

OBJECT_NAME    = CSS (TIANHE)
OBJECT_ID      = 2021-035A
CENTER_NAME    = EARTH
REF_FRAME      = TEME
TIME_SYSTEM    = UTC
MEAN_ELEMENT_THEORY = SGP/SGP4

EPOCH          = 2026-02-27T00:39:02.297952
MEAN_MOTION    = 15.60161945
ECCENTRICITY   = .00060258
INCLINATION    = 41.4660
RA_OF_ASC_NODE = 273.0164
ARG_OF_PERICENTER = 205.1472
MEAN_ANOMALY   = 154.9074

EPHEMERIS_TYPE = 0
CLASSIFICATION_TYPE = U
NORAD_CAT_ID   = 48274
ELEMENT_SET_NO = 999
REV_AT_EPOCH   = 27594
BSTAR          = .3509601E-3
MEAN_MOTION_DOT = .29164E-3
MEAN_MOTION_DDOT = 0

CCSDS_OMM_VERS = 2.0
CREATION_DATE  = 
ORIGINATOR     = 

OBJECT_NAME    = ISS (NAUKA)
OBJECT_ID      = 2021-066A
CENTER_NAME    = EARTH
REF_FRAME      = TEME
TIME_SYSTEM    = UTC
MEAN_ELEMENT_THEORY = SGP/SGP4

EPOCH          = 2026-02-27T06:02:26.632896
MEAN_MOTION    = 15.48333785
ECCENTRICITY   = .00083426
INCLINATION    = 51.6322
RA_OF_ASC_NODE = 123.9568
ARG_OF_PERICENTER = 138.2013
MEAN_ANOMALY   = 221.9613

EPHEMERIS_TYPE = 0
CLASSIFICATION_TYPE = U
NORAD_CAT_ID   = 49044
ELEMENT_SET_NO = 999
REV_AT_EPOCH   = 23044
BSTAR          = .26392566E-3
MEAN_MOTION_DOT = .13796E-3
MEAN_MOTION_DDOT = 0

CCSDS_OMM_VERS = 2.0
CREATION_DATE  = 
ORIGINATOR     = 

OBJECT_NAME    = FREGAT DEB
OBJECT_ID      = 2011-037PF
CENTER_NAME    = EARTH
REF_FRAME      = TEME
TIME_SYSTEM    = UTC
MEAN_ELEMENT_THEORY = SGP/SGP4

EPOCH          = 2026-02-27T02:56:14.378496
MEAN_MOTION    = 12.39503425
ECCENTRICITY   = .09511133
INCLINATION    = 51.6457
RA_OF_ASC_NODE = 332.4314
ARG_OF_PERICENTER = 35.1262
MEAN_ANOMALY   = 330.8686

EPHEMERIS_TYPE = 0
CLASSIFICATION_TYPE = U
NORAD_CAT_ID   = 49271
ELEMENT_SET_NO = 999
REV_AT_EPOCH   = 21138
BSTAR          = .49618991E-1
MEAN_MOTION_DOT = .33007E-3
MEAN_MOTION_DDOT = 0

CCSDS_OMM_VERS = 2.0
CREATION_DATE  = 
ORIGINATOR     = 

OBJECT_NAME    = CSS (WENTIAN)
OBJECT_ID      = 2022-085A
CENTER_NAME    = EARTH
REF_FRAME      = TEME
TIME_SYSTEM    = UTC
MEAN_ELEMENT_THEORY = SGP/SGP4

EPOCH          = 2026-02-27T00:39:02.297952
MEAN_MOTION    = 15.60161945
ECCENTRICITY   = .00060258
INCLINATION    = 41.4660
RA_OF_ASC_NODE = 273.0164
ARG_OF_PERICENTER = 205.1472
MEAN_ANOMALY   = 154.9074

EPHEMERIS_TYPE = 0
CLASSIFICATION_TYPE = U
NORAD_CAT_ID   = 53239
ELEMENT_SET_NO = 999
REV_AT_EPOCH   = 17384
BSTAR          = .3509601E-3
MEAN_MOTION_DOT = .29164E-3
MEAN_MOTION_DDOT = 0

CCSDS_OMM_VERS = 2.0
CREATION_DATE  = 
ORIGINATOR     = 

OBJECT_NAME    = CSS (MENGTIAN)
OBJECT_ID      = 2022-143A
CENTER_NAME    = EARTH
REF_FRAME      = TEME
TIME_SYSTEM    = UTC
MEAN_ELEMENT_THEORY = SGP/SGP4

EPOCH          = 2026-02-27T00:39:02.297952
MEAN_MOTION    = 15.60161945
ECCENTRICITY   = .00060258
INCLINATION    = 41.4660
RA_OF_ASC_NODE = 273.0164
ARG_OF_PERICENTER = 205.1472
MEAN_ANOMALY   = 154.9074

EPHEMERIS_TYPE = 0
CLASSIFICATION_TYPE = U
NORAD_CAT_ID   = 54216
ELEMENT_SET_NO = 999
REV_AT_EPOCH   = 15864
BSTAR          = .3509601E-3
MEAN_MOTION_DOT = .29164E-3
MEAN_MOTION_DDOT = 0

CCSDS_OMM_VERS = 2.0
CREATION_DATE  = 
ORIGINATOR     = 

OBJECT_NAME    = PROGRESS-MS 31
OBJECT_ID      = 2025-146A
CENTER_NAME    = EARTH
REF_FRAME      = TEME
TIME_SYSTEM    = UTC
MEAN_ELEMENT_THEORY = SGP/SGP4

EPOCH          = 2026-02-27T06:02:26.632896
MEAN_MOTION    = 15.48333785
ECCENTRICITY   = .00083426
INCLINATION    = 51.6322
RA_OF_ASC_NODE = 123.9568
ARG_OF_PERICENTER = 138.2013
MEAN_ANOMALY   = 221.9613

EPHEMERIS_TYPE = 0
CLASSIFICATION_TYPE = U
NORAD_CAT_ID   = 64751
ELEMENT_SET_NO = 999
REV_AT_EPOCH   = 675
BSTAR          = .26392566E-3
MEAN_MOTION_DOT = .13796E-3
MEAN_MOTION_DDOT = 0

CCSDS_OMM_VERS = 2.0
CREATION_DATE  = 
ORIGINATOR     = 

OBJECT_NAME    = TIANZHOU-9
OBJECT_ID      = 2025-149A
CENTER_NAME    = EARTH
REF_FRAME      = TEME
TIME_SYSTEM    = UTC
MEAN_ELEMENT_THEORY = SGP/SGP4

EPOCH          = 2026-02-27T00:39:02.297952
MEAN_MOTION    = 15.60161945
ECCENTRICITY   = .00060258
INCLINATION    = 41.4660
RA_OF_ASC_NODE = 273.0164
ARG_OF_PERICENTER = 205.1472
MEAN_ANOMALY   = 154.9074

EPHEMERIS_TYPE = 0
CLASSIFICATION_TYPE = U
NORAD_CAT_ID   = 64786
ELEMENT_SET_NO = 999
REV_AT_EPOCH   = 25530
BSTAR          = .3509601E-3
MEAN_MOTION_DOT = .29164E-3
MEAN_MOTION_DDOT = 0

CCSDS_OMM_VERS = 2.0
CREATION_DATE  = 
ORIGINATOR     = 

OBJECT_NAME    = DRAGON CRS-33
OBJECT_ID      = 2025-186A
CENTER_NAME    = EARTH
REF_FRAME      = TEME
TIME_SYSTEM    = UTC
MEAN_ELEMENT_THEORY = SGP/SGP4

EPOCH          = 2026-02-27T06:02:26.632896
MEAN_MOTION    = 15.48333785
ECCENTRICITY   = .00083426
INCLINATION    = 51.6322
RA_OF_ASC_NODE = 123.9568
ARG_OF_PERICENTER = 138.2013
MEAN_ANOMALY   = 221.9613

EPHEMERIS_TYPE = 0
CLASSIFICATION_TYPE = U
NORAD_CAT_ID   = 65304
ELEMENT_SET_NO = 999
REV_AT_EPOCH   = 11
BSTAR          = .26392566E-3
MEAN_MOTION_DOT = .13796E-3
MEAN_MOTION_DDOT = 0

CCSDS_OMM_VERS = 2.0
CREATION_DATE  = 
ORIGINATOR     = 

OBJECT_NAME    = PROGRESS-MS 32
OBJECT_ID      = 2025-204A
CENTER_NAME    = EARTH
REF_FRAME      = TEME
TIME_SYSTEM    = UTC
MEAN_ELEMENT_THEORY = SGP/SGP4

EPOCH          = 2026-02-27T06:02:26.632896
MEAN_MOTION    = 15.48333785
ECCENTRICITY   = .00083426
INCLINATION    = 51.6322
RA_OF_ASC_NODE = 123.9568
ARG_OF_PERICENTER = 138.2013
MEAN_ANOMALY   = 221.9613

EPHEMERIS_TYPE = 0
CLASSIFICATION_TYPE = U
NORAD_CAT_ID   = 65586
ELEMENT_SET_NO = 999
REV_AT_EPOCH   = 27
BSTAR          = .26392566E-3
MEAN_MOTION_DOT = .13796E-3
MEAN_MOTION_DDOT = 0

CCSDS_OMM_VERS = 2.0
CREATION_DATE  = 
ORIGINATOR     = 

OBJECT_NAME    = CYGNUS NG-23
OBJECT_ID      = 2025-208A
CENTER_NAME    = EARTH
REF_FRAME      = TEME
TIME_SYSTEM    = UTC
MEAN_ELEMENT_THEORY = SGP/SGP4

EPOCH          = 2026-02-27T06:02:26.632896
MEAN_MOTION    = 15.48333785
ECCENTRICITY   = .00083426
INCLINATION    = 51.6322
RA_OF_ASC_NODE = 123.9568
ARG_OF_PERICENTER = 138.2013
MEAN_ANOMALY   = 221.9613

EPHEMERIS_TYPE = 0
CLASSIFICATION_TYPE = U
NORAD_CAT_ID   = 65616
ELEMENT_SET_NO = 999
REV_AT_EPOCH   = 22
BSTAR          = .26392566E-3
MEAN_MOTION_DOT = .13796E-3
MEAN_MOTION_DDOT = 0

